[{"OBJECT_NAME":"STARLINK-35317","OBJECT_ID":"2025-243H","EPOCH":"2026-03-09T21:29:44.554848","MEAN_MOTION":15.30205848,"ECCENTRICITY":0.00010459,"INCLINATION":53.1585,"RA_OF_ASC_NODE":244.4158,"ARG_OF_PERICENTER":73.829,"MEAN_ANOMALY":286.2826,"EPHEMERIS_TYPE":0,"CLASSIFICATION_TYPE":"U","NORAD_CAT_ID":66184,"ELEMENT_SET_NO":999,"REV_AT_EPOCH":2068,"BSTAR":0.00098733239,"MEAN_MOTION_DOT":0.00029002,"MEAN_MOTION_DDOT":0},{"OBJECT_NAME":"COSMOS 1953","OBJECT_ID":"1988-050A","EPOCH":"2026-03-09T18:09:26.993952","MEAN_MOTION":15.28528086,"ECCENTRICITY":0.00124769,"INCLINATION":82.5105,"RA_OF_ASC_NODE":158.18,"ARG_OF_PERICENTER":122.2454,"MEAN_ANOMALY":237.9996,"EPHEMERIS_TYPE":0,"CLASSIFICATION_TYPE":"U","NORAD_CAT_ID":19210,"ELEMENT_SET_NO":999,"REV_AT_EPOCH":3779,"BSTAR":0.00029210954,"MEAN_MOTION_DOT":8.158e-5,"MEAN_MOTION_DDOT":0}]
